[{"OBJECT_NAME":"KUIPER-00095","OBJECT_ID":"2025-171C","EPOCH":"2026-03-09T22:00:01.999584","MEAN_MOTION":14.82527265,"ECCENTRICITY":0.00028575,"INCLINATION":51.896,"RA_OF_ASC_NODE":144.6724,"ARG_OF_PERICENTER":335.1982,"MEAN_ANOMALY":314.9018,"EPHEMERIS_TYPE":0,"CLASSIFICATION_TYPE":"U","NORAD_CAT_ID":65134,"ELEMENT_SET_NO":999,"REV_AT_EPOCH":157,"BSTAR":-0.0063567272,"MEAN_MOTION_DOT":-0.00051405,"MEAN_MOTION_DDOT":0},{"OBJECT_NAME":"FENGYUN 1C DEB","OBJECT_ID":"1999-025CDX","EPOCH":"2026-03-09T22:59:14.256960","MEAN_MOTION":14.52069725,"ECCENTRICITY":0.0144424,"INCLINATION":97.856,"RA_OF_ASC_NODE":74.1221,"ARG_OF_PERICENTER":332.9469,"MEAN_ANOMALY":26.4251,"EPHEMERIS_TYPE":0,"CLASSIFICATION_TYPE":"U","NORAD_CAT_ID":31724,"ELEMENT_SET_NO":999,"REV_AT_EPOCH":65756,"BSTAR":0.0045734099,"MEAN_MOTION_DOT":0.00021216,"MEAN_MOTION_DDOT":0}]
